ORBCOMM FM37            
1 33064U 08031E   24206.92776487  .00003378  00000+0  50448-3 0  9996
2 33064  48.4401  96.3752 0005502  54.2593  53.8806 14.76884464865620
ORBCOMM FM40            
1 33065U 08031F   24206.92271897  .00004339  00000+0  61846-3 0  9994
2 33065  48.4423  85.0139 0006733  65.1792  49.6947 14.78322407865678
VESSELSAT 1             
1 37840U 11058C   24206.52507493  .00000488  00000+0  12202-3 0  9995
2 37840  19.9617 276.3409 0013644 182.0238 178.0112 14.11178823659961
ORBCOMM FM109           
1 40086U 14040A   24206.88395183  .00002040  00000+0  48793-3 0  9995
2 40086  47.0026 120.7371 0002337 261.6046  98.4574 14.56858091533319
ORBCOMM FM107           
1 40087U 14040B   24206.84914228  .00001890  00000+0  45461-3 0  9990
2 40087  47.0043 121.8739 0001474 235.4727 124.6019 14.56859282533381
ORBCOMM FM106           
1 40088U 14040C   24206.71283539  .00002675  00000+0  50016-3 0  9995
2 40088  47.0615 330.0704 0017828 342.5587  17.4689 14.67347150535345
ORBCOMM FM111           
1 40089U 14040D   24206.52669679  .00004431  00000+0  56939-3 0  9990
2 40089  47.0018 223.0416 0032155  65.2783 295.1454 14.82297341541548
ORBCOMM FM104           
1 40090U 14040E   24206.89859453  .00001561  00000+0  39432-3 0  9993
2 40090  47.0047 151.4100 0016357 151.1230 209.0563 14.55326309532928
